
# Worst residual: 75.60 km
# MJD 60275.000000 (2023 Nov 27  0:00)
C3QHGX1 = A10VDyu
1 79963U 23999ZZN 23331.49919926  .00000000  00000-0  00000-0 0 19875
2 79963 010.7693 035.1816 1380610 116.0525 284.8372 00.91301105    09

# Worst residual: 112.25 km
# MJD 60276.000000 (2023 Nov 28  0:00)
C3QHGX1 = A10VDyu
1 79963U 23999ZZN 23332.49919926  .00000000  00000-0  00000-0 0 19876
2 79963 010.7735 035.0903 1296586 116.0483 254.7092 00.91357125    01

# Worst residual: 100.32 km
# MJD 60277.000000 (2023 Nov 29  0:00)
C3QHGX1 = A10VDyu
1 79963U 23999ZZN 23333.49919926  .00000000  00000-0  00000-0 0 19877
2 79963 010.7858 035.0180 1221753 116.0580 224.5154 00.91476502    01

# Worst residual: 132.39 km
# MJD 60278.000000 (2023 Nov 30  0:00)
C3QHGX1 = A10VDyu
1 79963U 23999ZZN 23334.49919926  .00000000  00000-0  00000-0 0 19878
2 79963 010.7879 034.9157 1151472 115.7991 194.5952 00.91622623    07

# Worst residual: 127.88 km
# MJD 60279.000000 (2023 Dec  1  0:00)
C3QHGX1 = A10VDyu
1 79963U 23999ZZN 23335.49919926  .00000000  00000-0  00000-0 0 19879
2 79963 010.8021 034.8717 1080140 114.9447 165.1554 00.91757292    01

# Worst residual: 81.24 km
# MJD 60280.000000 (2023 Dec  2  0:00)
C3QHGX1 = A10VDyu
1 79963U 23999ZZN 23336.49919926  .00000000  00000-0  00000-0 0 19870
2 79963 010.8122 034.7935 1001748 113.8083 135.9937 00.91839685    02

# Worst residual: 81.97 km
# MJD 60281.000000 (2023 Dec  3  0:00)
C3QHGX1 = A10VDyu
1 79963U 23999ZZN 23337.49919926  .00000000  00000-0  00000-0 0 19871
2 79963 010.8228 034.7375 0918050 112.6280 106.8243 00.91839875    03

# Worst residual: 107.37 km
# MJD 60282.000000 (2023 Dec  4  0:00)
C3QHGX1 = A10VDyu
1 79963U 23999ZZN 23338.49919926  .00000000  00000-0  00000-0 0 19872
2 79963 010.8236 034.6465 0837230 111.6903 077.4386 00.91760557    03

# Worst residual: 119.36 km
# MJD 60283.000000 (2023 Dec  5  0:00)
C3QHGX1 = A10VDyu
1 79963U 23999ZZN 23339.49919926  .00000000  00000-0  00000-0 0 19873
2 79963 010.8335 034.6341 0763480 110.3776 048.3773 00.91634551    06

# Worst residual: 140.32 km
# MJD 60284.000000 (2023 Dec  6  0:00)
C3QHGX1 = A10VDyu
1 79963U 23999ZZN 23340.49919926  .00000000  00000-0  00000-0 0 19875
2 79963 010.8398 034.5739 0695720 108.3818 020.0988 00.91487229    03

# Worst residual: 127.68 km
# MJD 60285.000000 (2023 Dec  7  0:00)
C3QHGX1 = A10VDyu
1 79963U 23999ZZN 23341.49919926  .00000000  00000-0  00000-0 0 19876
2 79963 010.8442 034.5158 0628214 105.2070 353.0559 00.91366244    04

# Worst residual: 74.58 km
# MJD 60286.000000 (2023 Dec  8  0:00)
C3QHGX1 = A10VDyu
1 79963U 23999ZZN 23342.49919926  .00000000  00000-0  00000-0 0 19877
2 79963 010.8467 034.4641 0557586 100.8713 327.2142 00.91304703    08

# Worst residual: 104.04 km
# MJD 60287.000000 (2023 Dec  9  0:00)
C3QHGX1 = A10VDyu
1 79963U 23999ZZN 23343.49919926  .00000000  00000-0  00000-0 0 19878
2 79963 010.8481 034.4213 0486342 095.6192 302.3011 00.91320644    03

# Worst residual: 128.55 km
# MJD 60288.000000 (2023 Dec 10  0:00)
C3QHGX1 = A10VDyu
1 79963U 23999ZZN 23344.49919926  .00000000  00000-0  00000-0 0 19879
2 79963 010.8487 034.3879 0421677 089.4786 278.2585 00.91412470    02

# Worst residual: 106.75 km
# MJD 60289.000000 (2023 Dec 11  0:00)
C3QHGX1 = A10VDyu
1 79963U 23999ZZN 23345.49919926  .00000000  00000-0  00000-0 0 19870
2 79963 010.8492 034.3630 0370777 081.7855 255.7247 00.91553997    04

# Worst residual: 137.67 km
# MJD 60290.000000 (2023 Dec 12  0:00)
C3QHGX1 = A10VDyu
1 79963U 23999ZZN 23346.49919926  .00000000  00000-0  00000-0 0 19871
2 79963 010.8494 034.3451 0336905 071.3795 235.8462 00.91700675    05

# Worst residual: 112.92 km
# MJD 60291.000000 (2023 Dec 13  0:00)
C3QHGX1 = A10VDyu
1 79963U 23999ZZN 23347.49919926  .00000000  00000-0  00000-0 0 19872
2 79963 010.8495 034.3329 0320713 057.8464 219.0383 00.91809156    02

# Worst residual: 58.99 km
# MJD 60292.000000 (2023 Dec 14  0:00)
C3QHGX1 = A10VDyu
1 79963U 23999ZZN 23348.49919926  .00000000  00000-0  00000-0 0 19873
2 79963 010.8495 034.3241 0322587 042.5417 203.9613 00.91850990    05

# Worst residual: 112.66 km
# MJD 60293.000000 (2023 Dec 15  0:00)
C3QHGX1 = A10VDyu
1 79963U 23999ZZN 23349.49919926  .00000000  00000-0  00000-0 0 19874
2 79963 010.8492 034.3160 0341127 028.0155 188.0903 00.91814338    02

# Worst residual: 117.31 km
# MJD 60294.000000 (2023 Dec 16  0:00)
C3QHGX1 = A10VDyu
1 79963U 23999ZZN 23350.49919926  .00000000  00000-0  00000-0 0 19876
2 79963 010.8487 034.2788 0371886 016.2499 169.4966 00.91699987    09

# Worst residual: 114.45 km
# MJD 60295.000000 (2023 Dec 17  0:00)
C3QHGX1 = A10VDyu
1 79963U 23999ZZN 23351.49919926  .00000000  00000-0  00000-0 0 19877
2 79963 010.8462 034.2983 0417392 007.9635 147.4072 00.91557205    01

# Worst residual: 134.21 km
# MJD 60296.000000 (2023 Dec 18  0:00)
C3QHGX1 = A10VDyu
1 79963U 23999ZZN 23352.49919926  .00000000  00000-0  00000-0 0 19878
2 79963 010.8433 034.2500 0475260 002.1403 122.9725 00.91421210    01

# Worst residual: 103.16 km
# MJD 60297.000000 (2023 Dec 19  0:00)
C3QHGX1 = A10VDyu
1 79963U 23999ZZN 23353.49919926  .00000000  00000-0  00000-0 0 19879
2 79963 010.8373 034.2689 0544620 357.3830 097.4599 00.91322745    06

# Worst residual: 73.66 km
# MJD 60298.000000 (2023 Dec 20  0:00)
C3QHGX1 = A10VDyu
1 79963U 23999ZZN 23354.49919926  .00000000  00000-0  00000-0 0 19870
2 79963 010.8328 034.2704 0620503 353.3391 071.2865 00.91299510    06

# Worst residual: 119.71 km
# MJD 60299.000000 (2023 Dec 21  0:00)
C3QHGX1 = A10VDyu
1 79963U 23999ZZN 23355.49919926  .00000000  00000-0  00000-0 0 19871
2 79963 010.8279 034.2777 0694769 349.7372 044.6769 00.91366928    09

# Worst residual: 116.73 km
# MJD 60300.000000 (2023 Dec 22  0:00)
C3QHGX1 = A10VDyu
1 79963U 23999ZZN 23356.49919926  .00000000  00000-0  00000-0 0 19872
2 79963 010.8282 034.3132 0764311 347.1027 017.0519 00.91496149    05

# Worst residual: 111.57 km
# MJD 60301.000000 (2023 Dec 23  0:00)
C3QHGX1 = A10VDyu
1 79963U 23999ZZN 23357.49919926  .00000000  00000-0  00000-0 0 19873
2 79963 010.8065 034.2945 0835244 345.4738 348.4246 00.91632974    05

# Worst residual: 128.21 km
# MJD 60302.000000 (2023 Dec 24  0:00)
C3QHGX1 = A10VDyu
1 79963U 23999ZZN 23358.49919926  .00000000  00000-0  00000-0 0 19874
2 79963 010.7970 034.3171 0910325 344.4765 319.0670 00.91766548    04

# Worst residual: 86.36 km
# MJD 60303.000000 (2023 Dec 25  0:00)
C3QHGX1 = A10VDyu
1 79963U 23999ZZN 23359.49919926  .00000000  00000-0  00000-0 0 19875
2 79963 010.7890 034.3534 0993311 343.6137 289.5162 00.91840608    05

# Worst residual: 87.83 km
# MJD 60304.000000 (2023 Dec 26  0:00)
C3QHGX1 = A10VDyu
1 79963U 23999ZZN 23360.49919926  .00000000  00000-0  00000-0 0 19877
2 79963 010.7790 034.3662 1078300 342.6408 260.0740 00.91844401    00
